ONEWEB-0300             
1 49089U 21075Q   26020.28045788  .00000325  00000+0  86691-3 0  9999
2 49089  87.8933  20.0176 0001964  78.6543 281.4806 13.12445182215805
ONEWEB-0301             
1 49090U 21075R   26020.26433893 -.00000519  00000+0 -14770-2 0  9992
2 49090  87.8929  20.0218 0001872  76.8809 283.2528 13.12443868215161
ONEWEB-0302             
1 49091U 21075S   26020.25079919 -.00000497  00000+0 -14169-2 0  9994
2 49091  87.8932  20.0330 0001689 100.1877 259.9443 13.12443096215140
ONEWEB-0304             
1 49092U 21075T   26020.32062457  .00000103  00000+0  23236-3 0  9990
2 49092  87.9092  35.2524 0001914  93.9820 266.1530 13.17648843214104
ONEWEB-0305             
1 49093U 21075U   26020.31387989  .00000026  00000+0  33433-4 0  9995
2 49093  87.9094  35.2319 0002198  96.7932 263.3450 13.17649983214138
ONEWEB-0308             
1 49094U 21075V   26020.24401187 -.00000354  00000+0 -10193-2 0  9997
2 49094  87.8931  20.0275 0001757  87.7803 272.3527 13.12441100215152
ONEWEB-0309             
1 49095U 21075W   26020.31724440  .00000063  00000+0  12961-3 0  9997
2 49095  87.9095  35.2464 0001663 105.2103 254.9213 13.17650304214103
ONEWEB-0310             
1 49096U 21075X   26020.25925519 -.00000441  00000+0 -12621-2 0  9995
2 49096  87.8920  20.0584 0001745  88.8117 271.3211 13.12441973215788
